{
  "type": "FeatureCollection",
  "features": [
    {
      "type": "Feature",
      "properties": {
        "id": "alt_a",
        "name": "Alternativa A (contorno)"
      },
      "geometry": {
        "type": "LineString",
        "coordinates": [
          [-46.667, -23.578],
          [-46.653, -23.57],
          [-46.64, -23.555],
          [-46.627, -23.537]
        ]
      }
    },
    {
      "type": "Feature",
      "properties": {
        "id": "alt_b",
        "name": "Alternativa B (travessia)"
      },
      "geometry": {
        "type": "LineString",
        "coordinates": [
          [-46.666, -23.577],
          [-46.648, -23.562],
          [-46.635, -23.548],
          [-46.626, -23.536]
        ]
      }
    }
  ]
}
